

*******************************************************************************
Ephemeris / WWW_USER Thu Dec 21 08:34:07 2023 Pasadena, USA      / Horizons
*******************************************************************************
Target body name: Mars (499)                      {source: mar097}
Center body name: Solar System Barycenter (0)     {source: DE441}
Center-site name: BODY CENTER
*******************************************************************************
Start time      : A.D. 2022-Dec-01 00:00:00.0000 TDB
Stop  time      : A.D. 2023-Dec-01 00:00:00.0000 TDB
Step-size       : 1440 minutes
*******************************************************************************
Center geodetic : 0.0, 0.0, 0.0                   {E-lon(deg),Lat(deg),Alt(km)}
Center cylindric: 0.0, 0.0, 0.0                   {E-lon(deg),Dxy(km),Dz(km)}
Center radii    : (undefined)
Output units    : KM-S
Calendar mode   : Gregorian
Output type     : GEOMETRIC cartesian states
Output format   : 2 (position and velocity)
Reference frame : Ecliptic of J2000.0
*******************************************************************************
            JDTDB,            Calendar Date (TDB),                      X,                      Y,                      Z,                     VX,                     VY,                     VZ,
**************************************************************************************************************************************************************************************************
$$SOE
2459914.500000000, A.D. 2022-Dec-01 00:00:00.0000,  6.899425761789179E+07,  2.170564586297517E+08,  2.853404620621324E+06, -2.212919567334162E+01,  9.518038334367546E+00,  7.427596231279119E-01,
2459915.500000000, A.D. 2022-Dec-02 00:00:00.0000,  6.707939029641084E+07,  2.178697602904798E+08,  2.917460483029723E+06, -2.219610048876629E+01,  9.308347397464861E+00,  7.400058660043132E-01,
2459916.500000000, A.D. 2022-Dec-03 00:00:00.0000,  6.515882950375696E+07,  2.186649341575969E+08,  2.981276064672753E+06, -2.226098973179291E+01,  9.098416627282052E+00,  7.371976328203824E-01,
2459917.500000000, A.D. 2022-Dec-04 00:00:00.0000,  6.323274917966358E+07,  2.194419603283766E+08,  3.044846681237921E+06, -2.232386819354869E+01,  8.888264997836719E+00,  7.343354461065976E-01,
2459918.500000000, A.D. 2022-Dec-05 00:00:00.0000,  6.130132284433160E+07,  2.202008205314761E+08,  3.108167692982808E+06, -2.238474081320519E+01,  8.677911290103831E+00,  7.314198252280089E-01,
2459919.500000000, A.D. 2022-Dec-06 00:00:00.0000,  5.936472358550841E+07,  2.209414981122844E+08,  3.171234504712552E+06, -2.244361266895755E+01,  8.467374103532865E+00,  7.284512838317307E-01,
2459920.500000000, A.D. 2022-Dec-07 00:00:00.0000,  5.742312404598245E+07,  2.216639780181620E+08,  3.234042565694913E+06, -2.250048897325072E+01,  8.256671881633274E+00,  7.254303306475838E-01,
2459921.500000000, A.D. 2022-Dec-08 00:00:00.0000,  5.547669641124871E+07,  2.223682467836066E+08,  3.296587369625837E+06, -2.255537507550367E+01,  8.045822920937399E+00,  7.223574734416180E-01,
2459922.500000000, A.D. 2022-Dec-09 00:00:00.0000,  5.352561239730440E+07,  2.230542925154985E+08,  3.358864454678744E+06, -2.260827646746137E+01,  7.834845356224257E+00,  7.192332227068605E-01,
2459923.500000000, A.D. 2022-Dec-10 00:00:00.0000,  5.157004323876829E+07,  2.237221048784743E+08,  3.420869403550878E+06, -2.265919878816139E+01,  7.623757144611822E+00,  7.160580946588651E-01,
2459924.500000000, A.D. 2022-Dec-11 00:00:00.0000,  4.961015967746103E+07,  2.243716750802680E+08,  3.482597843429551E+06, -2.270814782291317E+01,  7.412576061377207E+00,  7.128326120979689E-01,
2459925.500000000, A.D. 2022-Dec-12 00:00:00.0000,  4.764613195134228E+07,  2.250029958568686E+08,  3.544045445910424E+06, -2.275512948870269E+01,  7.201319701326753E+00,  7.095572991688921E-01,
2459926.500000000, A.D. 2022-Dec-13 00:00:00.0000,  4.567812978364652E+07,  2.256160614576012E+08,  3.605207926942244E+06, -2.280014981102116E+01,  6.990005481050176E+00,  7.062326717151324E-01,
2459927.500000000, A.D. 2022-Dec-14 00:00:00.0000,  4.370632237224253E+07,  2.262108676303830E+08,  3.666081046803981E+06, -2.284321491385304E+01,  6.778650647235059E+00,  7.028592339041464E-01,
2459928.500000000, A.D. 2022-Dec-15 00:00:00.0000,  4.173087837935262E+07,  2.267874116072150E+08,  3.726660610057563E+06, -2.288433103314648E+01,  6.567272287692386E+00,  6.994374866019131E-01,
2459929.500000000, A.D. 2022-Dec-16 00:00:00.0000,  3.975196592165380E+07,  2.273456920896837E+08,  3.786942465450585E+06, -2.292350453206817E+01,  6.355887335549595E+00,  6.959679368482923E-01,
2459930.500000000, A.D. 2022-Dec-17 00:00:00.0000,  3.776975256061700E+07,  2.278857092342974E+08,  3.846922505818710E+06, -2.296074189896400E+01,  6.144512564902468E+00,  6.924510986886370E-01,
2459931.500000000, A.D. 2022-Dec-18 00:00:00.0000,  3.578440529296590E+07,  2.284074646377712E+08,  3.906596668047294E+06, -2.299604973576989E+01,  5.933164578343073E+00,  6.888874885660776E-01,
2459932.500000000, A.D. 2022-Dec-19 00:00:00.0000,  3.379609054134611E+07,  2.289109613224676E+08,  3.965960933063686E+06, -2.302943474980716E+01,  5.721859792069250E+00,  6.852776216551564E-01,
2459933.500000000, A.D. 2022-Dec-20 00:00:00.0000,  3.180497414540540E+07,  2.293962037219851E+08,  4.025011325766504E+06, -2.306090374661779E+01,  5.510614433773720E+00,  6.816220091208769E-01,
2459934.500000000, A.D. 2022-Dec-21 00:00:00.0000,  2.981122135331558E+07,  2.298631976667345E+08,  4.083743914861366E+06, -2.309046361959150E+01,  5.299444562245099E+00,  6.779211552349460E-01,
2459935.500000000, A.D. 2022-Dec-22 00:00:00.0000,  2.781499681352750E+07,  2.303119503694626E+08,  4.142154812691584E+06, -2.311812134526943E+01,  5.088366090287963E+00,  6.741755579366151E-01,
2459936.500000000, A.D. 2022-Dec-23 00:00:00.0000,  2.581646456658715E+07,  2.307424704108722E+08,  4.200240175155059E+06, -2.314388398933600E+01,  4.877394784755051E+00,  6.703857134735205E-01,
2459937.500000000, A.D. 2022-Dec-24 00:00:00.0000,  2.381578803711375E+07,  2.311547677254486E+08,  4.257996201671854E+06, -2.316775871605177E+01,  4.666546249999786E+00,  6.665521214313175E-01,
2459938.500000000, A.D. 2022-Dec-25 00:00:00.0000,  2.181313002614210E+07,  2.315488535873984E+08,  4.315419135101050E+06, -2.318975279304872E+01,  4.455835918289830E+00,  6.626752877193491E-01,
2459939.500000000, A.D. 2022-Dec-26 00:00:00.0000,  1.980865270382806E+07,  2.319247405965042E+08,  4.372505261588514E+06, -2.320987358500606E+01,  4.245279050196645E+00,  6.587557229356886E-01,
2459940.500000000, A.D. 2022-Dec-27 00:00:00.0000,  1.780251760234391E+07,  2.322824426638739E+08,  4.429250910417795E+06, -2.322812853473783E+01,  4.034890734458230E+00,  6.547939345669560E-01,
2459941.500000000, A.D. 2022-Dec-28 00:00:00.0000,  1.579488560890253E+07,  2.326219749977996E+08,  4.485652453905538E+06, -2.324452514393940E+01,  3.824685889072180E+00,  6.507904185670148E-01,
2459942.500000000, A.D. 2022-Dec-29 00:00:00.0000,  1.378591695904208E+07,  2.329433540899093E+08,  4.541706307293847E+06, -2.325907097260239E+01,  3.614679272824646E+00,  6.467456603295636E-01,
2459943.500000000, A.D. 2022-Dec-30 00:00:00.0000,  1.177577123026731E+07,  2.332465977015064E+08,  4.597408928588927E+06, -2.327177365581810E+01,  3.404885499502844E+00,  6.426601448098139E-01,
2459944.500000000, A.D. 2022-Dec-31 00:00:00.0000,  9.764607335942563E+06,  2.335317248498566E+08,  4.652756818376347E+06, -2.328264091343700E+01,  3.195319040805449E+00,  6.385343631522791E-01,
2459945.500000000, A.D. 2023-Jan-01 00:00:00.0000,  7.752583519268439E+06,  2.337987557943932E+08,  4.707746519684419E+06, -2.329168054360782E+01,  2.985994216998675E+00,  6.343688107030675E-01,
2459946.500000000, A.D. 2023-Jan-02 00:00:00.0000,  5.739857347340972E+06,  2.340477120230428E+08,  4.762374617908865E+06, -2.329890041406720E+01,  2.776925181385346E+00,  6.301639829975645E-01,
2459947.500000000, A.D. 2023-Jan-03 00:00:00.0000,  3.726585705479371E+06,  2.342786162387754E+08,  4.816637740719944E+06, -2.330430845792899E+01,  2.568125909952047E+00,  6.259203737789210E-01,
2459948.500000000, A.D. 2023-Jan-04 00:00:00.0000,  1.712924791955421E+06,  2.344914923462428E+08,  4.870532557878256E+06, -2.330791266546604E+01,  2.359610208295658E+00,  6.216384720393311E-01,
2459949.500000000, A.D. 2023-Jan-05 00:00:00.0000, -3.009698869854619E+05,  2.346863654383782E+08,  4.924055780995205E+06, -2.330972107164850E+01,  2.151391734576238E+00,  6.173187582060924E-01,
2459950.500000000, A.D. 2023-Jan-06 00:00:00.0000, -2.314943522030941E+06,  2.348632617830544E+08,  4.977204163343444E+06, -2.330974175430481E+01,  1.943484015674058E+00,  6.129617054582270E-01,
2459951.500000000, A.D. 2023-Jan-07 00:00:00.0000, -4.328842005672674E+06,  2.350222088099769E+08,  5.029974499751031E+06, -2.330798284557334E+01,  1.735900440247106E+00,  6.085677861655387E-01,
2459952.500000000, A.D. 2023-Jan-08 00:00:00.0000, -6.342511936855934E+06,  2.351632350977979E+08,  5.082363626494288E+06, -2.330445254348233E+01,  1.528654244742500E+00,  6.041374777080697E-01,
2459953.500000000, A.D. 2023-Jan-09 00:00:00.0000, -8.355800625298008E+06,  2.352863703612553E+08,  5.134368421120390E+06, -2.329915911302093E+01,  1.321758509934109E+00,  5.996712637981476E-01,
2459954.500000000, A.D. 2023-Jan-10 00:00:00.0000, -1.036855609559912E+07,  2.353916454382114E+08,  5.185985802242175E+06, -2.329211087396389E+01,  1.115226161494760E+00,  5.951696298160258E-01,
2459955.500000000, A.D. 2023-Jan-11 00:00:00.0000, -1.238062709128554E+07,  2.354790922767099E+08,  5.237212729375377E+06, -2.328331618149979E+01,  9.090699666638019E-01,  5.906330540624183E-01,
2459956.500000000, A.D. 2023-Jan-12 00:00:00.0000, -1.439186307871890E+07,  2.355487439222894E+08,  5.288046202802137E+06, -2.327278341404223E+01,  7.033025369212962E-01,  5.860620022861679E-01,
